[{"OBJECT_NAME":"STARLINK-32740","OBJECT_ID":"2025-014V","EPOCH":"2026-03-09T05:49:42.043872","MEAN_MOTION":15.27588843,"ECCENTRICITY":0.00018429,"INCLINATION":43.0001,"RA_OF_ASC_NODE":156.5188,"ARG_OF_PERICENTER":269.0252,"MEAN_ANOMALY":91.0389,"EPHEMERIS_TYPE":0,"CLASSIFICATION_TYPE":"U","NORAD_CAT_ID":62754,"ELEMENT_SET_NO":999,"REV_AT_EPOCH":6319,"BSTAR":0.0014503161,"MEAN_MOTION_DOT":0.00039875,"MEAN_MOTION_DDOT":0},{"OBJECT_NAME":"FENGYUN 1C DEB","OBJECT_ID":"1999-025CCU","EPOCH":"2026-03-09T04:16:51.250080","MEAN_MOTION":14.7380712,"ECCENTRICITY":0.02770831,"INCLINATION":98.1363,"RA_OF_ASC_NODE":145.1449,"ARG_OF_PERICENTER":173.2574,"MEAN_ANOMALY":217.8544,"EPHEMERIS_TYPE":0,"CLASSIFICATION_TYPE":"U","NORAD_CAT_ID":31686,"ELEMENT_SET_NO":999,"REV_AT_EPOCH":99091,"BSTAR":0.001175879,"MEAN_MOTION_DOT":0.00014291,"MEAN_MOTION_DDOT":0}]
